CYGNUS NG-23            
1 65616U 25208A   25362.85596041  .00017802  00000+0  32007-3 0  9999
2 65616  51.6322  62.6586 0003255 316.0304  44.0425 15.49920091   223
DRAGONFLY               
1 65729U 98067XH  25363.17414471  .00287930  00000+0  15917-2 0  9990
2 65729  51.6250  51.2497 0008582  13.4870 346.6359 15.78189024 15753
1998-067XK              
1 65731U 98067XK  25363.50274612  .00147753  00000+0  12248-2 0  9993
2 65731  51.6292  51.9798 0005113 349.6622  10.4269 15.69221471 15770
RSP-03                  
1 65732U 98067XL  25363.08985775  .00202673  00000+0  14122-2 0  9992
2 65732  51.6263  52.9551 0006249 353.9826   6.1096 15.73169027 15731
GHS-01                  
1 65733U 98067XM  25363.40206567  .00414300  00000+0  17754-2 0  9990
2 65733  51.6276  49.0281 0009715  18.8599 341.2762 15.83384232 15818
YOTSUBA-KULOVER         
1 65941U 98067XN  25363.17017204  .00097112  00000+0  10928-2 0  9997
2 65941  51.6295  57.2615 0003008  19.6062 340.5047 15.61779561 12426
BOTAN                   
1 65942U 98067XP  25362.87799181  .00155553  00000+0  14401-2 0  9999
2 65942  51.6282  57.5575 0003924   3.5779 356.5245 15.66486827 12393
E-KAGAKU-1              
1 65943U 98067XQ  25363.17020838  .00098584  00000+0  11079-2 0  9998
2 65943  51.6305  57.2668 0001730 359.8375   0.2618 15.61808396 12427
HRC MONOBLOCK CAMERA    
1 66052U 98067XR  25363.36341613  .00047047  00000+0  68286-3 0  9999
2 66052  51.6309  58.5485 0001718 270.7951  89.2843 15.55338132 11426
HTV-X1                  
1 66174U 25241A   25362.85596041  .00017802  00000+0  32007-3 0  9996
2 66174  51.6322  62.6586 0003255 316.0304  44.0425 15.49920091   515
SZ-21 MODULE            
1 66515U 25246C   25362.76988595  .00034087  00000+0  36158-3 0  9994
2 66515  41.4763 278.1983 0003746 347.8379  12.2370 15.63373311  6957
SHENZHOU-22             
1 66645U 25272A   25363.17274057  .00025856  00000+0  31523-3 0  9999
2 66645  41.4674 276.8939 0009230 173.1352 186.9615 15.59842432265984
