CCSDS_OMM_VERS = 2.0
CREATION_DATE  = 
ORIGINATOR     = 

OBJECT_NAME    = CYGNUS NG-23
OBJECT_ID      = 2025-208A
CENTER_NAME    = EARTH
REF_FRAME      = TEME
TIME_SYSTEM    = UTC
MEAN_ELEMENT_THEORY = SGP/SGP4

EPOCH          = 2025-12-28T20:32:34.979424
MEAN_MOTION    = 15.49920091
ECCENTRICITY   = .00032554
INCLINATION    = 51.6322
RA_OF_ASC_NODE = 62.6586
ARG_OF_PERICENTER = 316.0304
MEAN_ANOMALY   = 44.0425

EPHEMERIS_TYPE = 0
CLASSIFICATION_TYPE = U
NORAD_CAT_ID   = 65616
ELEMENT_SET_NO = 999
REV_AT_EPOCH   = 22
BSTAR          = .320065E-3
MEAN_MOTION_DOT = .17802E-3
MEAN_MOTION_DDOT = 0

CCSDS_OMM_VERS = 2.0
CREATION_DATE  = 
ORIGINATOR     = 

OBJECT_NAME    = DRAGONFLY
OBJECT_ID      = 1998-067XH
CENTER_NAME    = EARTH
REF_FRAME      = TEME
TIME_SYSTEM    = UTC
MEAN_ELEMENT_THEORY = SGP/SGP4

EPOCH          = 2025-12-29T04:10:46.102944
MEAN_MOTION    = 15.78189024
ECCENTRICITY   = .0008582
INCLINATION    = 51.6250
RA_OF_ASC_NODE = 51.2497
ARG_OF_PERICENTER = 13.4870
MEAN_ANOMALY   = 346.6359

EPHEMERIS_TYPE = 0
CLASSIFICATION_TYPE = U
NORAD_CAT_ID   = 65729
ELEMENT_SET_NO = 999
REV_AT_EPOCH   = 1575
BSTAR          = .15916933E-2
MEAN_MOTION_DOT = .28793E-2
MEAN_MOTION_DDOT = 0

CCSDS_OMM_VERS = 2.0
CREATION_DATE  = 
ORIGINATOR     = 

OBJECT_NAME    = 1998-067XK
OBJECT_ID      = 1998-067XK
CENTER_NAME    = EARTH
REF_FRAME      = TEME
TIME_SYSTEM    = UTC
MEAN_ELEMENT_THEORY = SGP/SGP4

EPOCH          = 2025-12-29T12:03:57.264768
MEAN_MOTION    = 15.69221471
ECCENTRICITY   = .0005113
INCLINATION    = 51.6292
RA_OF_ASC_NODE = 51.9798
ARG_OF_PERICENTER = 349.6622
MEAN_ANOMALY   = 10.4269

EPHEMERIS_TYPE = 0
CLASSIFICATION_TYPE = U
NORAD_CAT_ID   = 65731
ELEMENT_SET_NO = 999
REV_AT_EPOCH   = 1577
BSTAR          = .12248E-2
MEAN_MOTION_DOT = .147753E-2
MEAN_MOTION_DDOT = 0

CCSDS_OMM_VERS = 2.0
CREATION_DATE  = 
ORIGINATOR     = 

OBJECT_NAME    = RSP-03
OBJECT_ID      = 1998-067XL
CENTER_NAME    = EARTH
REF_FRAME      = TEME
TIME_SYSTEM    = UTC
MEAN_ELEMENT_THEORY = SGP/SGP4

EPOCH          = 2025-12-29T02:09:23.709600
MEAN_MOTION    = 15.73169027
ECCENTRICITY   = .00062495
INCLINATION    = 51.6263
RA_OF_ASC_NODE = 52.9551
ARG_OF_PERICENTER = 353.9826
MEAN_ANOMALY   = 6.1096

EPHEMERIS_TYPE = 0
CLASSIFICATION_TYPE = U
NORAD_CAT_ID   = 65732
ELEMENT_SET_NO = 999
REV_AT_EPOCH   = 1573
BSTAR          = .1412223E-2
MEAN_MOTION_DOT = .202673E-2
MEAN_MOTION_DDOT = 0

CCSDS_OMM_VERS = 2.0
CREATION_DATE  = 
ORIGINATOR     = 

OBJECT_NAME    = GHS-01
OBJECT_ID      = 1998-067XM
CENTER_NAME    = EARTH
REF_FRAME      = TEME
TIME_SYSTEM    = UTC
MEAN_ELEMENT_THEORY = SGP/SGP4

EPOCH          = 2025-12-29T09:38:58.473888
MEAN_MOTION    = 15.83384232
ECCENTRICITY   = .0009715
INCLINATION    = 51.6276
RA_OF_ASC_NODE = 49.0281
ARG_OF_PERICENTER = 18.8599
MEAN_ANOMALY   = 341.2762

EPHEMERIS_TYPE = 0
CLASSIFICATION_TYPE = U
NORAD_CAT_ID   = 65733
ELEMENT_SET_NO = 999
REV_AT_EPOCH   = 1581
BSTAR          = .17754E-2
MEAN_MOTION_DOT = .4143E-2
MEAN_MOTION_DDOT = 0

CCSDS_OMM_VERS = 2.0
CREATION_DATE  = 
ORIGINATOR     = 

OBJECT_NAME    = YOTSUBA-KULOVER
OBJECT_ID      = 1998-067XN
CENTER_NAME    = EARTH
REF_FRAME      = TEME
TIME_SYSTEM    = UTC
MEAN_ELEMENT_THEORY = SGP/SGP4

EPOCH          = 2025-12-29T04:05:02.864256
MEAN_MOTION    = 15.61779561
ECCENTRICITY   = .00030082
INCLINATION    = 51.6295
RA_OF_ASC_NODE = 57.2615
ARG_OF_PERICENTER = 19.6062
MEAN_ANOMALY   = 340.5047

EPHEMERIS_TYPE = 0
CLASSIFICATION_TYPE = U
NORAD_CAT_ID   = 65941
ELEMENT_SET_NO = 999
REV_AT_EPOCH   = 1242
BSTAR          = .10927847E-2
MEAN_MOTION_DOT = .97112E-3
MEAN_MOTION_DDOT = 0

CCSDS_OMM_VERS = 2.0
CREATION_DATE  = 
ORIGINATOR     = 

OBJECT_NAME    = BOTAN
OBJECT_ID      = 1998-067XP
CENTER_NAME    = EARTH
REF_FRAME      = TEME
TIME_SYSTEM    = UTC
MEAN_ELEMENT_THEORY = SGP/SGP4

EPOCH          = 2025-12-28T21:04:18.492384
MEAN_MOTION    = 15.66486827
ECCENTRICITY   = .00039241
INCLINATION    = 51.6282
RA_OF_ASC_NODE = 57.5575
ARG_OF_PERICENTER = 3.5779
MEAN_ANOMALY   = 356.5245

EPHEMERIS_TYPE = 0
CLASSIFICATION_TYPE = U
NORAD_CAT_ID   = 65942
ELEMENT_SET_NO = 999
REV_AT_EPOCH   = 1239
BSTAR          = .14400977E-2
MEAN_MOTION_DOT = .155553E-2
MEAN_MOTION_DDOT = 0

CCSDS_OMM_VERS = 2.0
CREATION_DATE  = 
ORIGINATOR     = 

OBJECT_NAME    = E-KAGAKU-1
OBJECT_ID      = 1998-067XQ
CENTER_NAME    = EARTH
REF_FRAME      = TEME
TIME_SYSTEM    = UTC
MEAN_ELEMENT_THEORY = SGP/SGP4

EPOCH          = 2025-12-29T04:05:06.004032
MEAN_MOTION    = 15.61808396
ECCENTRICITY   = .00017301
INCLINATION    = 51.6305
RA_OF_ASC_NODE = 57.2668
ARG_OF_PERICENTER = 359.8375
MEAN_ANOMALY   = 0.2618

EPHEMERIS_TYPE = 0
CLASSIFICATION_TYPE = U
NORAD_CAT_ID   = 65943
ELEMENT_SET_NO = 999
REV_AT_EPOCH   = 1242
BSTAR          = .1107922E-2
MEAN_MOTION_DOT = .98584E-3
MEAN_MOTION_DDOT = 0

CCSDS_OMM_VERS = 2.0
CREATION_DATE  = 
ORIGINATOR     = 

OBJECT_NAME    = HRC MONOBLOCK CAMERA
OBJECT_ID      = 1998-067XR
CENTER_NAME    = EARTH
REF_FRAME      = TEME
TIME_SYSTEM    = UTC
MEAN_ELEMENT_THEORY = SGP/SGP4

EPOCH          = 2025-12-29T08:43:19.153632
MEAN_MOTION    = 15.55338132
ECCENTRICITY   = .0001718
INCLINATION    = 51.6309
RA_OF_ASC_NODE = 58.5485
ARG_OF_PERICENTER = 270.7951
MEAN_ANOMALY   = 89.2843

EPHEMERIS_TYPE = 0
CLASSIFICATION_TYPE = U
NORAD_CAT_ID   = 66052
ELEMENT_SET_NO = 999
REV_AT_EPOCH   = 1142
BSTAR          = .68286E-3
MEAN_MOTION_DOT = .47047E-3
MEAN_MOTION_DDOT = 0

CCSDS_OMM_VERS = 2.0
CREATION_DATE  = 
ORIGINATOR     = 

OBJECT_NAME    = HTV-X1
OBJECT_ID      = 2025-241A
CENTER_NAME    = EARTH
REF_FRAME      = TEME
TIME_SYSTEM    = UTC
MEAN_ELEMENT_THEORY = SGP/SGP4

EPOCH          = 2025-12-28T20:32:34.979424
MEAN_MOTION    = 15.49920091
ECCENTRICITY   = .00032554
INCLINATION    = 51.6322
RA_OF_ASC_NODE = 62.6586
ARG_OF_PERICENTER = 316.0304
MEAN_ANOMALY   = 44.0425

EPHEMERIS_TYPE = 0
CLASSIFICATION_TYPE = U
NORAD_CAT_ID   = 66174
ELEMENT_SET_NO = 999
REV_AT_EPOCH   = 51
BSTAR          = .320065E-3
MEAN_MOTION_DOT = .17802E-3
MEAN_MOTION_DDOT = 0

CCSDS_OMM_VERS = 2.0
CREATION_DATE  = 
ORIGINATOR     = 

OBJECT_NAME    = SZ-21 MODULE
OBJECT_ID      = 2025-246C
CENTER_NAME    = EARTH
REF_FRAME      = TEME
TIME_SYSTEM    = UTC
MEAN_ELEMENT_THEORY = SGP/SGP4

EPOCH          = 2025-12-28T18:28:38.146080
MEAN_MOTION    = 15.63373311
ECCENTRICITY   = .00037462
INCLINATION    = 41.4763
RA_OF_ASC_NODE = 278.1983
ARG_OF_PERICENTER = 347.8379
MEAN_ANOMALY   = 12.2370

EPHEMERIS_TYPE = 0
CLASSIFICATION_TYPE = U
NORAD_CAT_ID   = 66515
ELEMENT_SET_NO = 999
REV_AT_EPOCH   = 695
BSTAR          = .36158034E-3
MEAN_MOTION_DOT = .34087E-3
MEAN_MOTION_DDOT = 0

CCSDS_OMM_VERS = 2.0
CREATION_DATE  = 
ORIGINATOR     = 

OBJECT_NAME    = SHENZHOU-22
OBJECT_ID      = 2025-272A
CENTER_NAME    = EARTH
REF_FRAME      = TEME
TIME_SYSTEM    = UTC
MEAN_ELEMENT_THEORY = SGP/SGP4

EPOCH          = 2025-12-29T04:08:44.785248
MEAN_MOTION    = 15.59842432
ECCENTRICITY   = .00092303
INCLINATION    = 41.4674
RA_OF_ASC_NODE = 276.8939
ARG_OF_PERICENTER = 173.1352
MEAN_ANOMALY   = 186.9615

EPHEMERIS_TYPE = 0
CLASSIFICATION_TYPE = U
NORAD_CAT_ID   = 66645
ELEMENT_SET_NO = 999
REV_AT_EPOCH   = 26598
BSTAR          = .31522987E-3
MEAN_MOTION_DOT = .25856E-3
MEAN_MOTION_DDOT = 0

